{
  "norad_id": 54770,
  "name": "STARLINK-5448",
  "history": [
    {
      "epoch": "2026-04-11T17:19:05.229120Z",
      "apogee_km": 540.6202914681917,
      "perigee_km": 538.7829135353668,
      "latitude_deg": -7.872299337870605e-06,
      "longitude_deg": 141.30819788902065,
      "height_km": 540.6464638020923,
      "semi_major_axis_km": 6917.838602501779,
      "eccentricity": 0.0001328,
      "inclination_deg": 53.2165,
      "raan_deg": 241.017,
      "arg_perigee_deg": 93.0698,
      "mean_anomaly_deg": 267.0446,
      "mean_motion_rev_day": 15.08853671
    },
    {
      "epoch": "2026-04-12T18:45:15.640128Z",
      "apogee_km": 540.6784297993836,
      "perigee_km": 538.7906810093455,
      "latitude_deg": -7.431110533806713e-06,
      "longitude_deg": 113.96268953230755,
      "height_km": 540.6979426888604,
      "semi_major_axis_km": 6917.871555404365,
      "eccentricity": 0.00013644,
      "inclination_deg": 53.2171,
      "raan_deg": 236.2595,
      "arg_perigee_deg": 94.1139,
      "mean_anomaly_deg": 266.0009,
      "mean_motion_rev_day": 15.0884289
    },
    {
      "epoch": "2026-04-14T16:51:26.167680Z",
      "apogee_km": 540.6031338508301,
      "perigee_km": 538.8847322270631,
      "latitude_deg": 4.435526579114436e-05,
      "longitude_deg": 131.90268495090868,
      "height_km": 540.6364360815552,
      "semi_major_axis_km": 6917.880933038947,
      "eccentricity": 0.0001242,
      "inclination_deg": 53.2172,
      "raan_deg": 227.6367,
      "arg_perigee_deg": 89.7774,
      "mean_anomaly_deg": 270.3361,
      "mean_motion_rev_day": 15.08839822
    },
    {
      "epoch": "2026-04-15T15:06:50.704128Z",
      "apogee_km": 540.6438597826063,
      "perigee_km": 538.8825623888642,
      "latitude_deg": -2.753556710380562e-07,
      "longitude_deg": 152.9737633361859,
      "height_km": 540.6672022136115,
      "semi_major_axis_km": 6917.9002110857355,
      "eccentricity": 0.0001273,
      "inclination_deg": 53.2177,
      "raan_deg": 223.4741,
      "arg_perigee_deg": 90.5293,
      "mean_anomaly_deg": 269.5845,
      "mean_motion_rev_day": 15.08833515
    },
    {
      "epoch": "2026-04-16T14:57:37.700064Z",
      "apogee_km": 540.6406586472276,
      "perigee_km": 538.8613778489344,
      "latitude_deg": 4.048090798060699e-05,
      "longitude_deg": 149.83844281209375,
      "height_km": 540.6382052337956,
      "semi_major_axis_km": 6917.888018248081,
      "eccentricity": 0.0001286,
      "inclination_deg": 53.2183,
      "raan_deg": 219.0139,
      "arg_perigee_deg": 89.439,
      "mean_anomaly_deg": 270.675,
      "mean_motion_rev_day": 15.08837504
    },
    {
      "epoch": "2026-04-17T13:13:01.490016Z",
      "apogee_km": 540.5426147202252,
      "perigee_km": 538.9617386855653,
      "latitude_deg": 9.558258968975931e-07,
      "longitude_deg": 170.9116435503355,
      "height_km": 540.548447659839,
      "semi_major_axis_km": 6917.889176702895,
      "eccentricity": 0.00011426,
      "inclination_deg": 53.2172,
      "raan_deg": 214.8503,
      "arg_perigee_deg": 82.752,
      "mean_anomaly_deg": 277.3602,
      "mean_motion_rev_day": 15.08837125
    },
    {
      "epoch": "2026-04-18T13:03:48.409056Z",
      "apogee_km": 540.5668851151459,
      "perigee_km": 538.9121290546509,
      "latitude_deg": -1.431150524955011e-05,
      "longitude_deg": 167.77610124531188,
      "height_km": 540.6297097643021,
      "semi_major_axis_km": 6917.876507084898,
      "eccentricity": 0.0001196,
      "inclination_deg": 53.2173,
      "raan_deg": 210.3896,
      "arg_perigee_deg": 89.6038,
      "mean_anomaly_deg": 270.5091,
      "mean_motion_rev_day": 15.0884127
    },
    {
      "epoch": "2026-04-19T12:54:35.608032Z",
      "apogee_km": 540.6518412810419,
      "perigee_km": 538.8415694730193,
      "latitude_deg": -7.418937212292972e-06,
      "longitude_deg": 164.63920462753714,
      "height_km": 540.746811348417,
      "semi_major_axis_km": 6917.88370537703,
      "eccentricity": 0.00013084,
      "inclination_deg": 53.2175,
      "raan_deg": 205.9287,
      "arg_perigee_deg": 96.6174,
      "mean_anomaly_deg": 263.4967,
      "mean_motion_rev_day": 15.08838915
    },
    {
      "epoch": "2026-04-20T12:45:23.252832Z",
      "apogee_km": 540.6088224640134,
      "perigee_km": 538.9273564529694,
      "latitude_deg": -3.121350926908583e-05,
      "longitude_deg": 161.50192143110607,
      "height_km": 540.6733996791963,
      "semi_major_axis_km": 6917.905089458492,
      "eccentricity": 0.00012153,
      "inclination_deg": 53.2176,
      "raan_deg": 201.4693,
      "arg_perigee_deg": 90.6394,
      "mean_anomaly_deg": 269.4737,
      "mean_motion_rev_day": 15.08831919
    },
    {
      "epoch": "2026-04-21T12:36:09.729504Z",
      "apogee_km": 540.5297220787297,
      "perigee_km": 538.9621298077118,
      "latitude_deg": 3.90332250945069e-06,
      "longitude_deg": 158.367861907836,
      "height_km": 540.644573052984,
      "semi_major_axis_km": 6917.8829259432205,
      "eccentricity": 0.0001133,
      "inclination_deg": 53.2165,
      "raan_deg": 197.0082,
      "arg_perigee_deg": 90.1993,
      "mean_anomaly_deg": 269.9129,
      "mean_motion_rev_day": 15.0883917
    },
    {
      "epoch": "2026-04-22T12:26:57.655104Z",
      "apogee_km": 540.5163733484978,
      "perigee_km": 539.0431337966575,
      "latitude_deg": -5.389418813884649e-06,
      "longitude_deg": 155.2280155426951,
      "height_km": 540.653572633706,
      "semi_major_axis_km": 6917.916753572577,
      "eccentricity": 0.00010648,
      "inclination_deg": 53.2162,
      "raan_deg": 192.5474,
      "arg_perigee_deg": 88.2761,
      "mean_anomaly_deg": 271.8353,
      "mean_motion_rev_day": 15.08828103
    },
    {
      "epoch": "2026-04-23T04:20:49.015968Z",
      "apogee_km": 540.4912342759026,
      "perigee_km": 539.0132964132536,
      "latitude_deg": 3.8587793225334296e-05,
      "longitude_deg": -86.8622480914849,
      "height_km": 540.6476322091042,
      "semi_major_axis_km": 6917.889265344577,
      "eccentricity": 0.00010682,
      "inclination_deg": 53.2162,
      "raan_deg": 189.574,
      "arg_perigee_deg": 89.9532,
      "mean_anomaly_deg": 270.1583,
      "mean_motion_rev_day": 15.08837096
    },
    {
      "epoch": "2026-04-24T10:33:08.318304Z",
      "apogee_km": 540.4932434367765,
      "perigee_km": 539.0086646818345,
      "latitude_deg": -6.145727257036111e-06,
      "longitude_deg": 173.1679002670817,
      "height_km": 540.6371867709406,
      "semi_major_axis_km": 6917.887954059305,
      "eccentricity": 0.0001073,
      "inclination_deg": 53.2176,
      "raan_deg": 183.9251,
      "arg_perigee_deg": 89.2368,
      "mean_anomaly_deg": 270.8747,
      "mean_motion_rev_day": 15.08837525
    },
    {
      "epoch": "2026-04-25T10:23:55.150080Z",
      "apogee_km": 540.4734617184149,
      "perigee_km": 538.9985711913059,
      "latitude_deg": 5.7537309107594814e-05,
      "longitude_deg": 170.03348021268403,
      "height_km": 540.6391513518588,
      "semi_major_axis_km": 6917.87301645486,
      "eccentricity": 0.0001066,
      "inclination_deg": 53.2176,
      "raan_deg": 179.4651,
      "arg_perigee_deg": 90.5449,
      "mean_anomaly_deg": 269.5666,
      "mean_motion_rev_day": 15.08842412
    },
    {
      "epoch": "2026-04-26T10:14:42.614304Z",
      "apogee_km": 540.3256926594977,
      "perigee_km": 539.1755246656812,
      "latitude_deg": 3.2328896815262283e-06,
      "longitude_deg": 166.89493075270417,
      "height_km": 540.5489905312097,
      "semi_major_axis_km": 6917.88760866259,
      "eccentricity": 8.313e-05,
      "inclination_deg": 53.2163,
      "raan_deg": 175.0037,
      "arg_perigee_deg": 80.1947,
      "mean_anomaly_deg": 279.9139,
      "mean_motion_rev_day": 15.08837638
    },
    {
      "epoch": "2026-04-27T10:05:29.308704Z",
      "apogee_km": 540.4496416513966,
      "perigee_km": 539.0259430191345,
      "latitude_deg": 2.823796173202702e-05,
      "longitude_deg": 163.76025710326886,
      "height_km": 540.5780109535569,
      "semi_major_axis_km": 6917.874792335266,
      "eccentricity": 0.0001029,
      "inclination_deg": 53.2158,
      "raan_deg": 170.5429,
      "arg_perigee_deg": 85.5065,
      "mean_anomaly_deg": 274.6045,
      "mean_motion_rev_day": 15.08841831
    },
    {
      "epoch": "2026-04-28T08:20:53.546208Z",
      "apogee_km": 540.4918179422184,
      "perigee_km": 539.0224572273955,
      "latitude_deg": -1.9535040719016563e-05,
      "longitude_deg": -175.16781882626393,
      "height_km": 540.583507700401,
      "semi_major_axis_km": 6917.894137584806,
      "eccentricity": 0.0001062,
      "inclination_deg": 53.216,
      "raan_deg": 166.3799,
      "arg_perigee_deg": 84.5637,
      "mean_anomaly_deg": 275.5476,
      "mean_motion_rev_day": 15.08835502
    },
    {
      "epoch": "2026-04-29T09:47:04.092864Z",
      "apogee_km": 540.4960147830698,
      "perigee_km": 539.0161390960502,
      "latitude_deg": 5.404171078091944e-06,
      "longitude_deg": 157.48632568312084,
      "height_km": 540.5286961705134,
      "semi_major_axis_km": 6917.893076939559,
      "eccentricity": 0.00010696,
      "inclination_deg": 53.2161,
      "raan_deg": 161.6226,
      "arg_perigee_deg": 80.4026,
      "mean_anomaly_deg": 279.7087,
      "mean_motion_rev_day": 15.08835849
    },
    {
      "epoch": "2026-04-30T09:37:51.080160Z",
      "apogee_km": 540.4997490583364,
      "perigee_km": 539.0043781583472,
      "latitude_deg": -2.3379266618474824e-06,
      "longitude_deg": 154.35090324197606,
      "height_km": 540.5173871753418,
      "semi_major_axis_km": 6917.8890636083415,
      "eccentricity": 0.00010808,
      "inclination_deg": 53.2165,
      "raan_deg": 157.1623,
      "arg_perigee_deg": 79.9332,
      "mean_anomaly_deg": 280.1782,
      "mean_motion_rev_day": 15.08837162
    }
  ]
}